[{"OBJECT_NAME":"DONGPO 10","OBJECT_ID":"2022-167H","EPOCH":"2026-03-09T22:44:56.137344","MEAN_MOTION":15.322785,"ECCENTRICITY":0.00061655,"INCLINATION":97.685,"RA_OF_ASC_NODE":235.0962,"ARG_OF_PERICENTER":106.9526,"MEAN_ANOMALY":253.2392,"EPHEMERIS_TYPE":0,"CLASSIFICATION_TYPE":"U","NORAD_CAT_ID":54689,"ELEMENT_SET_NO":999,"REV_AT_EPOCH":18015,"BSTAR":0.00049390523,"MEAN_MOTION_DOT":0.00015333,"MEAN_MOTION_DDOT":0},{"OBJECT_NAME":"STARLINK-31417","OBJECT_ID":"2024-046R","EPOCH":"2026-03-09T22:32:22.560000","MEAN_MOTION":15.30194762,"ECCENTRICITY":0.00010089,"INCLINATION":53.1611,"RA_OF_ASC_NODE":154.4681,"ARG_OF_PERICENTER":92.4386,"MEAN_ANOMALY":267.673,"EPHEMERIS_TYPE":0,"CLASSIFICATION_TYPE":"U","NORAD_CAT_ID":59216,"ELEMENT_SET_NO":999,"REV_AT_EPOCH":11295,"BSTAR":2.8031089e-5,"MEAN_MOTION_DOT":4.71e-6,"MEAN_MOTION_DDOT":0}]
